#dP2022  6 11  0  0  0.00000000      96 __u+U ITR00 FIT  IAC
## 2213 518400.00000000   900.00000000 59741 0.0000000000000
+  115   C06C07C08C09C11C12C13C14C16C19C20C21C22C23C24C25C26
+        C27C28C29C30C32C33C34C35C36C37C38C39C40C41C42C43C44
+        C45C46E01E02E03E04E05E07E08E09E10E11E12E13E14E15E18
+        E19E21E24E25E26E27E30E31E33E34E36G01G02G03G04G05G06
+        G07G08G09G10G11G12G13G14G15G16G17G18G19G20G21G22G23
+        G24G25G26G27G28G29G30G31G32J02J03R01R02R03R04R05R07
+        R08R09R11R12R13R14R15R17R18R19R20R21R24  0  0  0  0
++         8  7  7  8  7  7  8  6  6  7  6  6  7  7  5  7  6
++         7  7  7  8  7  5  7  6  7  5  9  8  8  6  7  6  7
++         7  6  6  7  6  6  6  6  6  6  7  7  7  6  6  7  6
++         6  7  5  6  6  8  8  7  6  7  7  7  6  5  5  7  6
++         6  6  5  5  6  6  6  6  5  6  5  5  6  8  7  7  6
++         5  5  5  7  5  6  6  5  5  7  7  7  5  6  6  6  6
++         7  6  7  6  7  6  6  5  6  7  8  7  5  0  0  0  0
%c M  cc GPS ccc cccc cccc cccc cccc ccccc ccccc ccccc ccccc
%c cc cc ccc ccc cccc cccc cccc cccc ccccc ccccc ccccc ccccc
%f  0.0000000  0.000000000  0.00000000000  0.000000000000000
%f  0.0000000  0.000000000  0.00000000000  0.000000000000000
%i    0    0    0    0      0      0      0      0         0
%i    0    0    0    0      0      0      0      0         0
/* INFORMATION & ANALYSIS CENTER (IAC)      ULTRA-RAPID DATA
/* S/V CLOCKS ARE ALIGNED TO GNSS TIME                      
/* G:C1WC2W R:C1PC2P E:C1XC5X C:C2IC6I J:C1CC2S             
/* PCV:IGS14_2196 OL/AL:FES2004  NONE     YN ORB:CoN CLK:CoN
*  2022 06 11 22 30  0.00000000
PC06 -14165.449734  38700.104707   8438.082804    170.348522
PC07  -1565.278831  33194.883444  26054.481696   -286.662110
PC08 -13222.941135  20443.111577 -34464.547946    357.915182
PC09  -9878.780551  37823.462078  15493.691298   -874.359276
PC11  -8138.067374 -15713.562091  21625.329121    408.731512
PC12   5417.608516 -25740.644226   9323.181922   -600.225601
PC13  -6075.586449  22405.171911 -35103.263890     -6.587328
PC14 -17763.992347 -21288.550795  -2824.923917    500.212657
PC16 -16606.378243  38326.128470   4850.911818    138.839916
PC19  20603.870511  14678.612788  11836.303980    859.246343
PC20  13276.527005  24085.553664  -4824.806429   -955.016451
PC21   2637.010416 -19564.381060  19731.436692   -466.816748
PC22  16343.386697  -3564.157767  22345.594887   -964.927494
PC23 -26600.167215   6444.797166   5452.056637   -933.609290
PC24  -7355.224900 -15300.630518 -22155.491648   -971.076029
PC25 -25039.264360  -5116.631245 -11235.178785   -723.252722
PC26  11855.147311 -15694.109449 -19792.442717    724.816747
PC27 -11401.378771  25452.447440   -746.979784    737.528088
PC28 -18452.001517  14193.753721  15388.568919     77.475635
PC29  14920.325918   5599.476484 -22919.958682    567.119663
PC30   2625.387062  22586.314865 -16175.508732    499.774187
PC32  -2483.304082  19586.995310 -19709.656549   -967.735612
PC33 -20662.909039 -14616.234266 -11721.223459   -969.144323
PC34  -3359.267919 -22009.170952  16821.545327   -382.939479
PC35  18133.562508 -13805.576816 -16139.836712    316.381164
PC36  24607.171733   6060.196976  11710.905841   -967.530882
PC37 -13487.500275  15129.675210  19207.945477   -909.049154
PC38 -21058.369800  21345.451750 -29685.615383      2.498370
PC39 -18244.686654  37876.619110  -1696.669321     34.995587
PC40  -5334.960176  28804.776853  30383.538455    276.663772
PC41 -16587.231086   3156.084963 -22163.327352   -969.957801
PC42 -12503.033030 -24232.155841   5918.891482   -961.633428
PC43 -14657.801875  -6484.673345  22829.472195   -918.718792
PC44  10655.695949 -25805.822885    490.158604    689.328681
PC45  26487.812716  -6600.146604  -5743.126228    781.025419
PC46   9046.423311  14769.008861  21881.346989   -373.983542
PE01 -25215.752733 -14820.213311  -4557.498711   -494.350355
PE02  25287.520729  14730.667498   4395.075247    305.072352
PE03  15194.006837  16966.978503  18917.845207   -567.836259
PE04 -16577.049862   4719.648357 -24052.874897  -1047.980857
PE05   4838.567143  29094.499066   2545.434850   -173.032746
PE07   8189.828566 -24117.606585  15081.491276   -677.500268
PE08  16386.031184  -5006.523288  24142.107053   -544.978418
PE09  -7961.562302  24206.637284 -15066.581499   -550.189918
PE10 -24224.493027  16974.652202   1115.052661   -519.080141
PE11 -18726.777992  21026.350196  -9121.702012   3380.473196
PE12 -25665.223290  10275.843313  10540.903202     -6.100749
PE13  19213.468689 -20878.875671   8442.763011    429.234958
PE14  18998.584923  10810.723546 -23712.494711  -1810.610101
PE15  25623.185330 -10251.916304 -10713.391890    739.985441
PE18 -15514.700701    972.219254  18505.397184  -1340.671358
PE19 -14173.740021 -19281.689373 -17408.989708  -5400.929007
PE21 -10870.264515 -19430.252983 -19505.683446   -739.612024
PE24 -11915.931611  12587.102594  23986.008688   -665.555354
PE25  10579.455051  19425.798029  19675.361123   -577.243933
PE26    570.002066 -18884.212226  22782.602818  -1251.707658
PE27  10651.806322 -13271.800928 -24214.482809   -319.950127
PE30  26104.428893   1444.617486 -13876.548322   -584.981159
PE31 -25720.283692   -633.968036  14645.728969   -498.120250
PE33 -16884.596277  -6372.636702  23455.811804   -455.729622
PE34  17052.397183   6189.376459 -23401.460892   -521.684372
PE36  -1558.133181  19165.340443 -22506.441243   -386.775114
PG01  -5809.623066  17605.637711 -19181.619333    343.283357
PG02  21343.992319 -15902.311942   1816.086079   -652.762749
PG03   4267.248367  17796.407655 -19402.852939   -275.536541
PG04  -1220.619259  26483.145561   -135.451396   -158.047239
PG05  11262.101937 -10855.802353  21316.276505    -85.189137
PG06  23333.935772  -3893.322607 -12097.420781    339.838309
PG07  11241.221778  11420.333634  21642.724050    321.872485
PG08  -5714.672892  24231.201268   8691.313655    -71.766126
PG09   7021.537771  23736.280837   9520.278712   -329.193840
PG10 -23935.824236 -11342.421756  -3377.878222   -451.176393
PG11  23379.064551 -12522.279377   1195.213525    -15.790614
PG12    824.835905 -16799.742458 -20851.362204   -229.675371
PG13  12903.056061 -17548.757871  14922.377354    328.241727
PG14  23204.677562  12798.048266  -2444.505575   -111.304606
PG15   2630.267017 -25034.027921   7540.538277    -53.980943
PG16 -16532.203506   5060.188953  20016.482273   -508.246426
PG17  13087.296042   9920.533061 -20430.641178    623.878203
PG18 -10196.803418 -11358.296081  21736.729818    144.818282
PG19  14953.153064    988.379685 -22183.711340    169.456915
PG20  20533.244956  -4478.804973  16105.775299    512.212056
PG21 -14438.333107  18779.152224 -10644.088477    161.309937
PG22 -15132.890159   2440.154140 -21257.072418    274.237745
PG23 -19778.046576 -16379.782683   6987.973943    -27.479247
PG24   8452.961208 -19722.488136 -15685.804514    222.788225
PG25 -13771.076030 -18790.982076 -13290.669070    336.206316
PG26 -23292.866352  -1356.941627  12888.385126    211.737596
PG27 -12446.858310  14455.641463  18093.482094    214.578123
PG28  22821.898197   7517.045647 -10545.607213    340.071323
PG29  -4825.384915 -24000.531174  10160.843998   -523.100292
PG30  19525.620273   4224.710794  17711.608253   -531.082165
PG31 -24444.548149   5259.473380  -9750.522537   -181.421653
PG32 -14708.082470  -6841.057801 -20915.723035   -148.923746
PJ02 -27917.707176  21362.723200  28273.332043     -0.617091
PJ03 -32027.707179  26999.381128   9549.002818     -2.787754
PR01  -1231.492171 -19788.478468  16044.590756      9.811606
PR02 -11584.596887 -22640.210864  -2306.681560    521.026925
PR03 -14519.804153 -11259.602568 -17671.506521     58.271607
PR04  -9056.599998   6065.824087 -23029.581027    145.999670
PR05   1173.179808  20085.756027 -15651.579341     94.461799
PR07  14433.684278  10451.215631  18273.055272     36.302070
PR08   9093.086683  -6327.597156  23038.017997    -65.642979
PR09  14025.398207  10192.182734  18761.875283     59.987945
PR11  22053.074131  -4208.258312 -12111.612959     36.491838
PR12   5515.522957 -10394.889786 -22602.043383     18.814494
PR13 -12653.493228 -10293.629937 -19622.124646    -23.490080
PR14 -24849.502387  -3910.374752  -4152.232457     25.281616
PR15 -21567.145929   4438.363152  12894.281887     95.468786
PR17 -12962.922457   1068.274372  21950.442352    534.101192
PR18 -17106.469341  15275.633869  11118.291585    119.971552
PR19 -13549.116368  21145.813053  -4484.889607   -192.371184
PR20    251.505363  14844.431845 -20730.030268    -72.448123
PR21  13593.405716  -2420.740801 -21449.619851   -308.671132
PR24  -1485.537576 -14624.868000  20850.969663     98.229283
EOF
